OBJECT_NAME,OBJECT_ID,EPOCH,MEAN_MOTION,ECCENTRICITY,INCLINATION,RA_OF_ASC_NODE,ARG_OF_PERICENTER,MEAN_ANOMALY,EPHEMERIS_TYPE,CLASSIFICATION_TYPE,NORAD_CAT_ID,ELEMENT_SET_NO,REV_AT_EPOCH,BSTAR,MEAN_MOTION_DOT,MEAN_MOTION_DDOT
STARLINK-36567,2026-014W,2026-07-02T10:42:23.008032,15.33424318,.000131,97.2850,70.0021,62.1560,297.9815,0,U,67552,999,2636,.71398E-3,.2303E-3,0
STARLINK-36569,2026-014X,2026-07-02T06:12:13.561056,15.33430146,.0001658,97.2848,69.8000,86.9286,273.2146,0,U,67553,999,2633,.47311E-3,.15223E-3,0
STARLINK-36395,2026-014Y,2026-07-02T06:31:11.239104,15.33429816,.0001956,97.2849,72.6796,106.8290,253.3167,0,U,67554,999,2652,.28245E-3,.905E-4,0
STARLINK-36559,2026-014Z,2026-07-02T15:47:46.770144,15.33434209,.0001412,97.2847,70.1730,108.3694,251.7703,0,U,67555,999,2639,.39751E-3,.12775E-3,0
MR-2,2026-015A,2026-07-02T19:27:58.208832,13.52695580,.0004692,89.0003,266.9563,57.5912,302.5693,0,U,67556,999,2182,.10659E-3,.83E-6,0
MR-1,2026-015B,2026-07-02T15:59:15.569952,13.52670040,.000474,89.0002,266.9712,56.8744,303.2862,0,U,67557,999,2180,.11445E-3,.88E-6,0
STARLINK-36426,2026-014AA,2026-07-02T15:00:49.447584,15.33454070,.0001904,97.2846,70.2176,105.8531,254.2921,0,U,67560,999,2639,.845E-3,.27312E-3,0
STARLINK-36621,2026-016A,2026-07-02T14:48:33.215040,15.33453294,.0000045,97.2824,243.3472,38.0719,322.0526,0,U,67561,999,2447,.83945E-3,.2713E-3,0
STARLINK-36398,2026-016B,2026-07-02T04:02:31.111296,15.33473121,.00010299,97.2813,243.0383,144.4423,215.6889,0,U,67562,999,2441,.87979996E-3,.2846E-3,0
STARLINK-36403,2026-016C,2026-07-02T10:45:47.922912,15.33447070,.0000207,97.2855,243.2701,158.4693,201.6559,0,U,67563,999,2445,.70232E-3,.22668E-3,0
STARLINK-36593,2026-016D,2026-07-02T03:03:47.540448,15.33467074,.0000908,97.2818,242.9393,95.4861,264.6486,0,U,67564,999,2440,.11320836E-2,.36676E-3,0
STARLINK-35725,2026-016E,2026-07-02T14:28:58.189728,15.33456454,.0000849,97.2798,243.3650,281.4783,78.6364,0,U,67565,999,2447,.46684E-3,.15032E-3,0
STARLINK-36394,2026-016F,2026-07-02T03:35:06.741312,15.33453618,.00004665,97.2844,242.9135,203.3135,156.8087,0,U,67566,999,2440,.84816122E-3,.27413E-3,0
STARLINK-36352,2026-016G,2026-07-02T10:37:57.665856,15.33453642,.0000425,97.2860,243.2810,269.2373,90.8821,0,U,67567,999,2445,.55453E-3,.17874E-3,0
STARLINK-36435,2026-016H,2026-07-02T15:04:14.099808,15.33416443,.0001564,97.2844,243.4902,74.6445,285.4971,0,U,67568,999,2448,.8572E-3,.27676E-3,0
STARLINK-36575,2026-016J,2026-07-02T14:50:41.572608,15.33475605,.000055,97.2816,244.4104,137.4435,222.6850,0,U,67569,999,2454,.86845E-3,.28093E-3,0
STARLINK-36562,2026-016K,2026-07-02T15:15:55.735200,15.33477329,.0002612,97.2825,243.4777,271.6625,88.4319,0,U,67570,999,2448,.52578E-3,.16956E-3,0
STARLINK-36578,2026-016L,2026-07-02T14:36:48.337920,15.33435839,.0000808,97.2836,243.3623,254.2071,105.9082,0,U,67571,999,2447,.58471E-3,.18843E-3,0
STARLINK-36350,2026-016M,2026-07-02T03:23:22.076736,15.33460348,.00004566,97.2834,242.9244,105.0026,255.1267,0,U,67572,999,2440,.10735144E-2,.34758E-3,0
STARLINK-36588,2026-016N,2026-07-02T14:25:03.359712,15.33455591,.0000355,97.2800,243.3692,327.1895,32.9326,0,U,67573,999,2447,.53471E-3,.17232E-3,0
STARLINK-36594,2026-016P,2026-07-02T04:14:15.738720,15.33468429,.00005278,97.2837,243.0305,129.8386,230.2904,0,U,67574,999,2441,.77874403E-3,.25168E-3,0
STARLINK-36400,2026-016Q,2026-07-02T03:07:42.623616,15.33463152,.00009617,97.2832,242.9408,76.1843,283.9507,0,U,67575,999,2440,.11380586E-2,.36866E-3,0
STARLINK-36591,2026-016R,2026-07-02T10:41:52.660896,15.33464228,.0000139,97.2859,243.2774,121.5289,238.5967,0,U,67576,999,2445,.65113E-3,.21017E-3,0
STARLINK-36590,2026-016S,2026-07-02T14:09:23.535072,15.33438112,.0000543,97.2806,243.3858,223.6326,136.4873,0,U,67577,999,2447,.66627E-3,.21491E-3,0
STARLINK-36613,2026-016T,2026-07-02T03:46:51.481920,15.33448057,.00002583,97.2836,242.9049,146.9028,213.2231,0,U,67578,999,2440,.6455043E-3,.20824E-3,0
STARLINK-36571,2026-016U,2026-07-02T14:13:19.096896,15.33436505,.0001113,97.2869,243.3847,84.7802,275.3568,0,U,67579,999,2447,.78024E-3,.25191E-3,0
STARLINK-36612,2026-016V,2026-07-02T14:56:23.186976,15.33433968,.0000782,97.2835,243.4951,125.1482,234.9834,0,U,67580,999,2448,.39927E-3,.12832E-3,0
STARLINK-36632,2026-016W,2026-07-02T13:57:40.513824,15.33440130,.0001668,97.2839,243.3962,99.8548,260.2883,0,U,67581,999,2447,.66607E-3,.21486E-3,0
STARLINK-36609,2026-016X,2026-07-02T18:59:08.462688,15.33429433,.0001244,97.2836,243.5721,83.5756,276.5629,0,U,67582,999,2450,.28855E-3,.9247E-4,0
STARLINK-36577,2026-016Y,2026-07-02T14:52:28.159104,15.33444300,.0000143,97.2843,243.4978,153.2525,206.8725,0,U,67583,999,2448,.81996E-3,.26489E-3,0
